QZS-1R                  
1 49336U 21096A   23287.20539906 -.00000186  00000+0  00000+0 0  9993
2 49336  35.4355  94.3034 0746340 270.0073 227.1973  1.00279594  7216
